NORAD_CAT_ID,OBJECT_NAME,OBJECT_TYPE,EPOCH,MEAN_MOTION,ECCENTRICITY,INCLINATION,RA_OF_ASC_NODE,ARG_OF_PERICENTER,MEAN_ANOMALY,BSTAR,MEAN_MOTION_DOT,MEAN_MOTION_DDOT,TLE_LINE0,TLE_LINE1,TLE_LINE2,SEMIMAJOR_AXIS,PERIOD,APOGEE,PERIGEE,DECAYED
53887.0,STARLINK-5029,PAYLOAD,2023-02-06 14:51:37,15.08824369,0.0001358,53.2194,343.8471,90.5991,269.5157,0.00030206,4.521e-05,0.0,0 STARLINK-5029,1 53887U 22119B   23037.61918272  .00004521  00000-0  30206-3 0  9993,2 53887  53.2194 343.8471 0001358  90.5991 269.5157 15.08824369 21113,6917.928,95.439,540.733,538.854,0.0
53887.0,STARLINK-5029,PAYLOAD,2023-02-07 03:34:41,15.08847104,0.000124,53.2193,341.4683,65.5434,294.5687,0.0001586,2.238e-05,0.0,0 STARLINK-5029,1 53887U 22119B   23038.14909351  .00002238  00000-0  15860-3 0  9992,2 53887  53.2193 341.4683 0001240  65.5434 294.5687 15.08847104 21191,6917.859,95.437,540.581,538.866,0.0
53887.0,STARLINK-5029,PAYLOAD,2023-02-07 06:45:27,15.08854233,0.0001305,53.2199,340.8712,70.3569,289.7564,0.00016994,2.419e-05,0.0,0 STARLINK-5029,1 53887U 22119B   23038.28156705  .00002419  00000-0  16994-3 0  9994,2 53887  53.2199 340.8712 0001305  70.3569 289.7564 15.08854233 21212,6917.837,95.437,540.605,538.799,0.0
53887.0,STARLINK-5029,PAYLOAD,2023-02-08 03:25:28,15.08856309,0.0001125,53.2195,337.007,79.327,280.7849,6.764e-05,7.89e-06,0.0,0 STARLINK-5029,1 53887U 22119B   23039.14268928  .00000789  00000-0  67640-4 0  9994,2 53887  53.2195 337.0070 0001125  79.3270 280.7849 15.08856309 21348,6917.831,95.437,540.474,538.917,0.0
53887.0,STARLINK-5029,PAYLOAD,2023-02-08 14:33:11,15.08838579,9.85e-05,53.22,334.926,100.6733,259.437,-8.134e-05,-1.582e-05,0.0,0 STARLINK-5029,1 53887U 22119B   23039.60638206 -.00001582  00000-0 -81340-4 0  9992,2 53887  53.2200 334.9260 0000985 100.6733 259.4370 15.08838579 21416,6917.885,95.438,540.431,539.068,0.0
53887.0,STARLINK-5029,PAYLOAD,2023-02-09 04:51:39,15.08849902,0.0001341,53.2208,332.2445,75.3763,284.7377,-6.1938e-05,-1.274e-05,0.0,0 STARLINK-5029,1 53887U 22119B   23040.20253769 -.00001274  00000-0 -61938-4 0  9996,2 53887  53.2208 332.2445 0001341  75.3763 284.7377 15.08849902 21924,6917.85,95.437,540.643,538.787,0.0
53887.0,STARLINK-5029,PAYLOAD,2023-02-09 14:23:58,15.08843313,0.0001841,53.2197,330.4621,140.9992,219.1133,-0.00012691,-2.308e-05,0.0,0 STARLINK-5029,1 53887U 22119B   23040.59997835 -.00002308  00000-0 -12691-3 0  9997,2 53887  53.2197 330.4621 0001841 140.9992 219.1133 15.08843313 21567,6917.87,95.437,541.009,538.462,0.0
53887.0,STARLINK-5029,PAYLOAD,2023-02-09 20:45:31,15.08841139,0.000129,53.2185,329.2765,96.7835,263.3304,-0.00011138,-2.06e-05,0.0,0 STARLINK-5029,1 53887U 22119B   23040.86494589 -.00002060  00000-0 -11138-3 0  9995,2 53887  53.2185 329.2765 0001290  96.7835 263.3304 15.08841139 21601,6917.877,95.437,540.634,538.85,0.0
53887.0,STARLINK-5029,PAYLOAD,2023-02-10 01:31:40,15.08841435,0.0001117,53.2194,328.383,116.0641,244.0466,-3.4809e-05,-8.42e-06,0.0,0 STARLINK-5029,1 53887U 22119B   23041.06366121 -.00000842  00000-0 -34809-4 0  9995,2 53887  53.2194 328.3830 0001117 116.0641 244.0466 15.08841435 22057,6917.876,95.437,540.514,538.968,0.0
53887.0,STARLINK-5029,PAYLOAD,2023-02-10 04:42:25,15.0885896,0.0001427,53.2192,327.7839,120.0537,240.0596,3.7116e-05,3.03e-06,0.0,0 STARLINK-5029,1 53887U 22119B   23041.19612650  .00000303  00000-0  37116-4 0  9994,2 53887  53.2192 327.7839 0001427 120.0537 240.0596 15.08858960 21656,6917.822,95.436,540.675,538.7,0.0
53887.0,STARLINK-5029,PAYLOAD,2023-02-10 20:36:17,15.08834427,0.0001116,53.2193,324.817,87.8435,272.2685,8.156e-05,1.01e-05,0.0,0 STARLINK-5029,1 53887U 22119B   23041.85854008  .00001010  00000-0  81560-4 0  9990,2 53887  53.2193 324.8170 0001116  87.8435 272.2685 15.08834427 22171,6917.897,95.438,540.534,538.99,0.0
53887.0,STARLINK-5029,PAYLOAD,2023-02-11 01:22:26,15.08849632,0.000112,53.2193,323.9219,112.6976,247.4135,0.00019524,2.822e-05,0.0,0 STARLINK-5029,1 53887U 22119B   23042.05724545  .00002822  00000-0  19524-3 0  9997,2 53887  53.2193 323.9219 0001120 112.6976 247.4135 15.08849632 21781,6917.851,95.437,540.491,538.941,0.0
53887.0,STARLINK-5029,PAYLOAD,2023-02-11 18:51:41,15.08836316,0.0001241,53.2193,320.6528,107.8989,252.2139,-6.5284e-06,-3.92e-06,0.0,0 STARLINK-5029,1 53887U 22119B   23042.78590067 -.00000392  00000-0 -65284-5 0  9995,2 53887  53.2193 320.6528 0001241 107.8989 252.2139 15.08836316 21897,6917.892,95.438,540.615,538.898,0.0
53887.0,STARLINK-5029,PAYLOAD,2023-02-12 10:45:32,15.08850494,0.0001097,53.2189,317.6785,84.4383,275.6734,-6.9802e-05,-1.399e-05,0.0,0 STARLINK-5029,1 53887U 22119B   23043.44829318 -.00001399  00000-0 -69802-4 0  9990,2 53887  53.2189 317.6785 0001097  84.4383 275.6734 15.08850494 21994,6917.848,95.437,540.472,538.954,0.0
53887.0,STARLINK-5029,PAYLOAD,2023-02-12 18:42:30,15.08821151,0.0001435,53.2197,316.1934,113.4789,246.6354,-0.00016014,-2.834e-05,0.0,0 STARLINK-5029,1 53887U 22119B   23043.77951610 -.00002834  00000-0 -16014-3 0  9998,2 53887  53.2197 316.1934 0001435 113.4789 246.6354 15.08821151 22043,6917.938,95.439,540.796,538.81,0.0
53887.0,STARLINK-5029,PAYLOAD,2023-02-13 02:39:24,15.08840402,0.0001457,53.2188,314.705,104.2578,255.8576,-0.00012734,-2.314e-05,0.0,0 STARLINK-5029,1 53887U 22119B   23044.11070600 -.00002314  00000-0 -12734-3 0  9996,2 53887  53.2188 314.7050 0001457 104.2578 255.8576 15.08840402 22097,6917.879,95.438,540.752,538.736,0.0
53887.0,STARLINK-5029,PAYLOAD,2023-02-13 10:36:20,15.08839178,0.0001429,53.2189,313.2176,99.903,260.2123,-0.00015889,-2.816e-05,0.0,0 STARLINK-5029,1 53887U 22119B   23044.44190670 -.00002816  00000-0 -15889-3 0  9993,2 53887  53.2189 313.2176 0001429  99.9030 260.2123 15.08839178 22561,6917.883,95.438,540.736,538.759,0.0
53887.0,STARLINK-5029,PAYLOAD,2023-02-13 18:33:17,15.08820734,0.0001473,53.2196,311.7336,99.21,260.9058,-8.9129e-05,-1.705e-05,0.0,0 STARLINK-5029,1 53887U 22119B   23044.77312171 -.00001705  00000-0 -89129-4 0  9996,2 53887  53.2196 311.7336 0001473  99.2100 260.9058 15.08820734 22191,6917.939,95.439,540.823,538.785,0.0
53887.0,STARLINK-5029,PAYLOAD,2023-02-14 02:30:12,15.08833145,0.0001139,53.2192,310.2443,89.7758,270.3365,2.4857e-05,1.08e-06,0.0,0 STARLINK-5029,1 53887U 22119B   23045.10431209  .00000108  00000-0  24857-4 0  9999,2 53887  53.2192 310.2443 0001139  89.7758 270.3365 15.08833145 22244,6917.901,95.438,540.554,538.978,0.0
53887.0,STARLINK-5029,PAYLOAD,2023-02-14 10:27:08,15.08837811,0.0001211,53.2194,308.7585,83.4088,276.7042,-4.1e-05,-9.4e-06,0.0,0 STARLINK-5029,1 53887U 22119B   23045.43551313 -.00000940  00000-0 -41000-4 0  9999,2 53887  53.2194 308.7585 0001211  83.4088 276.7042 15.08837811 22711,6917.887,95.438,540.59,538.914,0.0
53887.0,STARLINK-5029,PAYLOAD,2023-02-14 18:24:04,15.08822399,0.000111,53.2207,307.2722,95.3067,264.8052,8.6814e-05,1.093e-05,0.0,0 STARLINK-5029,1 53887U 22119B   23045.76672011  .00001093  00000-0  86814-4 0  9994,2 53887  53.2207 307.2722 0001110  95.3067 264.8052 15.08822399 22343,6917.934,95.439,540.567,539.031,0.0
53887.0,STARLINK-5029,PAYLOAD,2023-02-15 00:45:36,15.08840453,0.0001019,53.2182,306.0823,89.8978,270.2131,0.00011089,1.478e-05,0.0,0 STARLINK-5029,1 53887U 22119B   23046.03167030  .00001478  00000-0  11089-3 0  9993,2 53887  53.2182 306.0823 0001019  89.8978 270.2131 15.08840453 22385,6917.879,95.438,540.449,539.039,0.0
53887.0,STARLINK-5029,PAYLOAD,2023-02-15 10:17:55,15.0884105,0.0001175,53.2183,304.2976,97.2811,262.8314,2.4522e-05,1.02e-06,0.0,0 STARLINK-5029,1 53887U 22119B   23046.42911318  .00000102  00000-0  24522-4 0  9992,2 53887  53.2183 304.2976 0001175  97.2811 262.8314 15.08841050 22864,6917.877,95.437,540.555,538.929,0.0
53887.0,STARLINK-5029,PAYLOAD,2023-02-15 18:14:51,15.08831903,0.0001322,53.2189,302.8123,96.1834,263.9309,0.00012083,1.635e-05,0.0,0 STARLINK-5029,1 53887U 22119B   23046.76031723  .00001635  00000-0  12083-3 0  9992,2 53887  53.2189 302.8123 0001322  96.1834 263.9309 15.08831903 22496,6917.905,95.438,540.685,538.856,0.0
53887.0,STARLINK-5029,PAYLOAD,2023-02-15 21:25:37,15.08835759,0.0001154,53.2178,302.2176,93.9135,266.1989,0.00016016,2.262e-05,0.0,0 STARLINK-5029,1 53887U 22119B   23046.89279284  .00002262  00000-0  16016-3 0  9999,2 53887  53.2178 302.2176 0001154  93.9135 266.1989 15.08835759 22939,6917.893,95.438,540.557,538.96,0.0
53887.0,STARLINK-5029,PAYLOAD,2023-02-16 00:36:22,15.0886154,0.0001224,53.2195,301.6219,91.2185,268.8947,0.0002034,2.953e-05,0.0,0 STARLINK-5029,1 53887U 22119B   23047.02525552  .00002953  00000-0  20340-3 0  9999,2 53887  53.2195 301.6219 0001224  91.2185 268.8947 15.08861540 22539,6917.815,95.436,540.526,538.833,0.0
53887.0,STARLINK-5029,PAYLOAD,2023-02-16 10:08:42,15.08838809,0.000174,53.22,299.8383,69.7361,290.3819,2.7497e-05,1.5e-06,0.0,0 STARLINK-5029,1 53887U 22119B   23047.42271659  .00000150  00000-0  27497-4 0  9997,2 53887  53.2200 299.8383 0001740  69.7361 290.3819 15.08838809 22591,6917.884,95.438,540.953,538.545,0.0
53887.0,STARLINK-5029,PAYLOAD,2023-02-17 02:02:34,15.08835426,0.0001259,53.2187,296.8605,75.4755,284.6377,-9.1749e-05,-1.748e-05,0.0,0 STARLINK-5029,1 53887U 22119B   23048.08512268 -.00001748  00000-0 -91749-4 0  9991,2 53887  53.2187 296.8605 0001259  75.4755 284.6377 15.08835426 22693,6917.894,95.438,540.63,538.888,0.0
53887.0,STARLINK-5029,PAYLOAD,2023-02-17 09:59:30,15.08835673,0.0001127,53.218,295.3771,76.0208,284.091,-5.7181e-05,-1.198e-05,0.0,0 STARLINK-5029,1 53887U 22119B   23048.41632166 -.00001198  00000-0 -57181-4 0  9999,2 53887  53.2180 295.3771 0001127  76.0208 284.0910 15.08835673 23162,6917.894,95.438,540.538,538.979,0.0
53887.0,STARLINK-5029,PAYLOAD,2023-02-17 21:07:13,15.08827495,0.0001394,53.2178,293.2975,73.9215,286.1931,-0.00012407,-2.261e-05,0.0,0 STARLINK-5029,1 53887U 22119B   23048.88001273 -.00002261  00000-0 -12407-3 0  9992,2 53887  53.2178 293.2975 0001394  73.9215 286.1931 15.08827495 23239,6917.919,95.438,540.748,538.819,0.0
